[{"OBJECT_NAME":"YAOGAN-11","OBJECT_ID":"2010-047A","EPOCH":"2026-03-09T12:42:56.090304","MEAN_MOTION":14.81905471,"ECCENTRICITY":0.00342942,"INCLINATION":98.4001,"RA_OF_ASC_NODE":289.8592,"ARG_OF_PERICENTER":200.6036,"MEAN_ANOMALY":159.3795,"EPHEMERIS_TYPE":0,"CLASSIFICATION_TYPE":"U","NORAD_CAT_ID":37165,"ELEMENT_SET_NO":999,"REV_AT_EPOCH":83333,"BSTAR":0.00017595344,"MEAN_MOTION_DOT":1.346e-5,"MEAN_MOTION_DDOT":0},{"OBJECT_NAME":"KUIPER-00261","OBJECT_ID":"2025-301AB","EPOCH":"2026-03-09T22:00:01.999584","MEAN_MOTION":14.84563292,"ECCENTRICITY":0.00102753,"INCLINATION":51.9001,"RA_OF_ASC_NODE":69.3185,"ARG_OF_PERICENTER":68.6185,"MEAN_ANOMALY":64.2752,"EPHEMERIS_TYPE":0,"CLASSIFICATION_TYPE":"U","NORAD_CAT_ID":67158,"ELEMENT_SET_NO":999,"REV_AT_EPOCH":496,"BSTAR":-0.0036247241,"MEAN_MOTION_DOT":-0.00031011,"MEAN_MOTION_DDOT":0}]
